{"version": 0.6, "generator": "Overpass API 0.7.62.7 375dc00a", "osm3s": {"timestamp_osm_base": "2025-06-27T20:44:34Z", "copyright": "The data included in this document is from www.openstreetmap.org. The data is made available under ODbL."}, "elements": [{"type": "node", "id": 150940447, "lat": 45.1473445, "lon": -122.577032, "tags": {"ele": "115", "gnis:feature_id": "1124282", "name": "Molalla", "place": "town", "population": "8304", "population:date": "2013", "source:population": "US Census", "wikidata": "Q588919", "wikipedia": "en:Molalla, Oregon"}}, {"type": "node", "id": 150946954, "lat": 45.3656761, "lon": -122.612314, "tags": {"gnis:feature_id": "1128884", "name": "West Linn", "name:etymology": "Lewis Fields Linn", "name:etymology:wikidata": "Q1822096", "name:etymology:wikipedia": "en:Lewis F. Linn", "name:ja": "\u30a6\u30a7\u30b9\u30c8\u30ea\u30f3", "place": "town", "population": "27373", "population:date": "2020", "source:population": "US Census", "wikidata": "Q932097", "wikipedia": "en:West Linn, Oregon"}}, {"type": "node", "id": 150947679, "lat": 45.3573429, "lon": -122.606758, "tags": {"capital": "6", "gnis:feature_id": "1136601", "name": "Oregon City", "name:chn": "t\u0259mwata", "name:en": "Oregon City", "name:es": "Oreg\u00f3n City", "name:ja": "\u30aa\u30ec\u30b4\u30f3\u30b7\u30c6\u30a3", "place": "town", "population": "37572", "population:date": "2020", "source:population": "US Census", "wikidata": "Q849596", "wikipedia": "en:Oregon City, Oregon"}}, {"type": "node", "id": 150952151, "lat": 45.3969212, "lon": -122.2616283, "tags": {"ele": "299", "gnis:feature_id": "1149054", "name": "Sandy", "name:ja": "\u30b5\u30f3\u30c7\u30a3", "place": "town", "population": "12612", "population:date": "2020", "source:population": "US Census", "wikidata": "Q2416599", "wikipedia": "en:Sandy, Oregon"}}, {"type": "node", "id": 150967808, "lat": 45.3803261, "lon": -122.5945507, "tags": {"name": "Gladstone", "name:ja": "\u30b0\u30e9\u30c3\u30c9\u30b9\u30c8\u30fc\u30f3", "place": "town", "population": "12017", "population:date": "2020", "source:population": "US Census", "wikidata": "Q1778831", "wikipedia": "en:Gladstone, Oregon"}}, {"type": "node", "id": 150970736, "lat": 45.4206749, "lon": -122.670649, "tags": {"gnis:feature_id": "1166669", "name": "Lake Oswego", "name:en": "Lake Oswego", "name:etymology": "Oswego, New York;Lake Grove, Oregon", "name:etymology:wikidata": "Q1017583;Q6476054", "name:etymology:wikipedia": "en:Oswego, New York;Lake Grove, Oregon", "name:ja": "\u30ec\u30a4\u30af\u30aa\u30b9\u30a6\u30a3\u30fc\u30b4", "place": "town", "population": "40731", "population:date": "2020", "source:population": "US Census", "wikidata": "Q983805", "wikipedia": "en:Lake Oswego, Oregon"}}, {"type": "node", "id": 150976737, "lat": 45.428679, "lon": -122.497174, "tags": {"gnis:feature_id": "1136354", "name": "Happy Valley", "place": "town", "population": "23733", "population:date": "2020", "source:population": "US Census", "wikidata": "Q1778806", "wikipedia": "en:Happy Valley, Oregon"}}]}