{"version": 0.6, "generator": "Overpass API 0.7.62.7 375dc00a", "osm3s": {"timestamp_osm_base": "2025-07-04T21:58:37Z", "copyright": "The data included in this document is from www.openstreetmap.org. The data is made available under ODbL."}, "elements": [{"type": "node", "id": 30189922, "lat": 48.4283182, "lon": -123.364953, "tags": {"capital": "4", "is_in:country": "Canada", "is_in:country_code": "CA", "name": "Victoria", "name:ar": "\u0641\u064a\u0643\u062a\u0648\u0631\u064a\u0627", "name:en": "Victoria", "name:mi": "Wikit\u014dria", "name:oc": "Vict\u00f2ria", "name:pl": "Victoria", "name:ru": "\u0412\u0438\u043a\u0442\u043e\u0440\u0438\u044f", "name:sr": "\u0412\u0438\u043a\u0442\u043e\u0440\u0438\u0458\u0430", "name:uk": "\u0412\u0456\u043a\u0442\u043e\u0440\u0456\u044f", "place": "city", "population": "91867", "population:date": "2021", "source:name:oc": "Lo Congr\u00e8s", "source:population": "wikipedia", "state_capital": "yes", "wikidata": "Q2132", "wikipedia": "en:Victoria, British Columbia"}}, {"type": "node", "id": 1471710759, "lat": 48.4594315, "lon": -123.376494, "tags": {"name": "Saanich", "place": "city", "population": "117735", "population:date": "2021", "source:population": "Census", "wikidata": "Q179553"}}]}