{"version": 0.6, "generator": "Overpass API 0.7.62.7 375dc00a", "osm3s": {"timestamp_osm_base": "2025-07-04T04:35:12Z", "copyright": "The data included in this document is from www.openstreetmap.org. The data is made available under ODbL."}, "elements": [{"type": "node", "id": 48723103, "lat": 45.6306954, "lon": -122.6744557, "tags": {"capital": "6", "gnis:feature_id": "2412146", "name": "Vancouver", "name:ar": "\u0641\u0627\u0646\u0643\u0648\u0641\u0631", "name:bg": "\u0412\u0430\u043d\u043a\u0443\u0432\u044a\u0440", "name:chn": "skichutxwa", "name:de": "Vancouver", "name:en": "Vancouver", "name:es": "Vancouver", "name:fa": "\u0648\u0646\u06a9\u0648\u0648\u0631", "name:fr": "Vancouver", "name:it": "Vancouver", "name:ja": "\u30d0\u30f3\u30af\u30fc\u30d0\u30fc", "name:ko": "\ubc34\ucfe0\ubc84", "name:pt": "Vancouver", "name:ru": "\u0412\u0430\u043d\u043a\u0443\u0432\u0435\u0440", "name:sr": "\u0412\u0430\u043d\u043a\u0443\u0432\u0435\u0440", "name:uk": "\u0412\u0430\u043d\u043a\u0443\u0432\u0435\u0440", "name:vi": "Vancouver", "name:zh": "\u6eab\u54e5\u83ef", "name:zh-Hans": "\u6e29\u54e5\u534e", "name:zh-Hant-CN": "\u6eab\u54e5\u83ef", "place": "city", "population": "190915", "population:date": "2020", "source:population": "US Census", "website": "https://www.cityofvancouver.us/", "wikidata": "Q234053", "wikipedia": "en:Vancouver, Washington"}}, {"type": "node", "id": 1666626393, "lat": 45.5202471, "lon": -122.674194, "tags": {"capital": "6", "name": "Portland", "name:af": "Portland", "name:ar": "\u0628\u0648\u0631\u062a\u0644\u0627\u0646\u062f", "name:az": "Portlend", "name:be": "\u041f\u043e\u0440\u0442\u043b\u0435\u043d\u0434", "name:bg": "\u041f\u043e\u0440\u0442\u043b\u0430\u043d\u0434", "name:bn": "\u09aa\u09cb\u09b0\u09cd\u099f\u09b2\u09cd\u09af\u09be\u09a8\u09cd\u09a1", "name:ca": "Portland", "name:chn": "p\u02b0ot\u026c\u0259n", "name:ckb": "\u067e\u06c6\u0631\u062a\u0644\u0627\u0646\u062f", "name:da": "Portland", "name:de": "Portland", "name:el": "\u03a0\u03cc\u03c1\u03c4\u03bb\u03b1\u03bd\u03c4", "name:en": "Portland", "name:es": "Portland", "name:et": "Portland", "name:etymology": "Portland", "name:etymology:wikidata": "Q49201", "name:etymology:wikipedia": "en:Portland, Maine", "name:fa": "\u067e\u0648\u0631\u062a\u0644\u0646\u062f", "name:fi": "Portland", "name:fo": "Portland", "name:fr": "Portland", "name:fy": "Portland", "name:gu": "\u0aaa\u0acb\u0ab0\u0acd\u0a9f\u0ab2\u0ac7\u0aa8\u0acd\u0aa1", "name:hi": "\u092a\u094b\u0930\u094d\u091f\u0932\u0948\u0902\u0921", "name:hr": "Portland", "name:hu": "Portland", "name:hy": "\u054a\u0578\u0580\u057f\u056c\u0565\u0576\u0564", "name:id": "Portland", "name:ja": "\u30dd\u30fc\u30c8\u30e9\u30f3\u30c9", "name:ka": "Portland", "name:ko": "\ud3ec\ud2c0\ub79c\ub4dc", "name:ku": "Portland", "name:lt": "Portlandas", "name:lv": "Portlenda", "name:mg": "Portland", "name:mk": "\u041f\u043e\u0440\u0442\u043b\u0430\u043d\u0434", "name:mr": "\u092a\u094b\u0930\u094d\u091f\u0932\u0902\u0921", "name:ms": "Portland", "name:nl": "Portland", "name:oc": "Portland", "name:pt": "Portland", "name:ro": "Portland", "name:ru": "\u041f\u043e\u0440\u0442\u043b\u0435\u043d\u0434", "name:sk": "Portland", "name:sl": "Portland", "name:sq": "Portland", "name:sv": "Portland", "name:ta": "\u0baa\u0bcb\u0bb0\u0bcd\u0b9f\u0bcd\u0bb2\u0ba9\u0bcd\u0b9f\u0bcd", "name:te": "\u0c2a\u0c4b\u0c30\u0c4d\u0c1f\u0c4d \u0c32\u0c3e\u0c02\u0c21\u0c4d", "name:th": "\u0e1e\u0e2d\u0e23\u0e4c\u0e15\u0e41\u0e25\u0e19\u0e14\u0e4c", "name:tl": "Portland", "name:tr": "Portland", "name:uk": "\u041f\u043e\u0440\u0442\u043b\u0435\u043d\u0434", "name:vi": "Portland", "name:zh-Hans": "\u6ce2\u7279\u5170", "name:zh-Hant": "\u6ce2\u7279\u862d", "place": "city", "population": "652503", "population:date": "2020", "source:name:oc": "Lo Congr\u00e8s", "source:population": "US Census", "website": "https://www.portland.gov/", "wikidata": "Q6106", "wikipedia": "en:Portland, Oregon"}}]}