{"version": 0.6, "generator": "Overpass API 0.7.62.7 375dc00a", "osm3s": {"timestamp_osm_base": "2025-06-27T20:45:36Z", "copyright": "The data included in this document is from www.openstreetmap.org. The data is made available under ODbL."}, "elements": [{"type": "node", "id": 150932918, "lat": 45.4307473, "lon": -122.771933, "tags": {"gnis:feature_id": "1128092", "name": "Tigard", "name:en": "Tigard", "name:etymology": "John W. Tigard", "name:ja": "\u30bf\u30a4\u30ac\u30fc\u30c9", "place": "city", "population": "54539", "population:date": "2020", "source:population": "US Census", "website": "https://www.tigard-or.gov/", "wikidata": "Q1444136"}}, {"type": "node", "id": 150934652, "lat": 45.3809339, "lon": -122.7694369, "tags": {"gnis:feature_id": "1128254", "name": "Tualatin", "name:ja": "\u30c6\u30e5\u30a2\u30e9\u30c6\u30a3\u30f3", "place": "town", "population": "28175", "population:date": "2024", "source:population": "Wordpopulationreview", "wikidata": "Q1762839", "wikipedia": "en:Tualatin, Oregon"}}, {"type": "node", "id": 150946954, "lat": 45.3656761, "lon": -122.612314, "tags": {"gnis:feature_id": "1128884", "name": "West Linn", "name:etymology": "Lewis Fields Linn", "name:etymology:wikidata": "Q1822096", "name:etymology:wikipedia": "en:Lewis F. Linn", "name:ja": "\u30a6\u30a7\u30b9\u30c8\u30ea\u30f3", "place": "town", "population": "27373", "population:date": "2020", "source:population": "US Census", "wikidata": "Q932097", "wikipedia": "en:West Linn, Oregon"}}, {"type": "node", "id": 150947679, "lat": 45.3573429, "lon": -122.606758, "tags": {"capital": "6", "gnis:feature_id": "1136601", "name": "Oregon City", "name:chn": "t\u0259mwata", "name:en": "Oregon City", "name:es": "Oreg\u00f3n City", "name:ja": "\u30aa\u30ec\u30b4\u30f3\u30b7\u30c6\u30a3", "place": "town", "population": "37572", "population:date": "2020", "source:population": "US Census", "wikidata": "Q849596", "wikipedia": "en:Oregon City, Oregon"}}, {"type": "node", "id": 150947849, "lat": 45.300347, "lon": -122.972751, "tags": {"gnis:feature_id": "1166686", "name": "Newberg", "name:etymology": "Neuberg", "name:etymology:wikidata": "Q634736", "name:etymology:wikipedia": "en:Neuberg, Hesse", "name:fa": "\u0646\u06cc\u0648\u0628\u0631\u06af", "place": "town", "population": "25138", "population:date": "2020", "source:population": "US Census", "wikidata": "Q932637", "wikipedia": "en:Newberg, Oregon"}}, {"type": "node", "id": 150948784, "lat": 45.143731, "lon": -122.8553725, "tags": {"ele": "57", "gnis:feature_id": "1163363", "name": "Woodburn", "place": "town", "population": "22035", "population:date": "2006", "source:population": "US Census", "wikidata": "Q1762847"}}, {"type": "node", "id": 150963743, "lat": 45.3569315, "lon": -122.8403744, "tags": {"gnis:feature_id": "1126877", "name": "Sherwood", "name:fa": "\u0634\u0631\u0648\u0648\u062f", "place": "town", "population": "20450", "population:date": "2020", "source:population": "US Census", "wikidata": "Q2639776"}}, {"type": "node", "id": 150967808, "lat": 45.3803261, "lon": -122.5945507, "tags": {"name": "Gladstone", "name:ja": "\u30b0\u30e9\u30c3\u30c9\u30b9\u30c8\u30fc\u30f3", "place": "town", "population": "12017", "population:date": "2020", "source:population": "US Census", "wikidata": "Q1778831", "wikipedia": "en:Gladstone, Oregon"}}, {"type": "node", "id": 150970736, "lat": 45.4206749, "lon": -122.670649, "tags": {"gnis:feature_id": "1166669", "name": "Lake Oswego", "name:en": "Lake Oswego", "name:etymology": "Oswego, New York;Lake Grove, Oregon", "name:etymology:wikidata": "Q1017583;Q6476054", "name:etymology:wikipedia": "en:Oswego, New York;Lake Grove, Oregon", "name:ja": "\u30ec\u30a4\u30af\u30aa\u30b9\u30a6\u30a3\u30fc\u30b4", "place": "town", "population": "40731", "population:date": "2020", "source:population": "US Census", "wikidata": "Q983805", "wikipedia": "en:Lake Oswego, Oregon"}}, {"type": "node", "id": 150973257, "lat": 45.3099218, "lon": -122.76816, "tags": {"ele": "47", "gnis:feature_id": "1136917", "name": "Wilsonville", "name:etymology": "Charles Wilson", "place": "town", "population": "26664", "population:date": "2020", "source:population": "US Census", "wikidata": "Q1762801"}}, {"type": "node", "id": 150977391, "lat": 45.2629088, "lon": -122.6925983, "tags": {"ele": "48", "gnis:feature_id": "1118554", "name": "Canby", "place": "town", "population": "18171", "population:date": "2020", "source:population": "US Census", "wikidata": "Q2005284"}}]}